start=new Date('2022-06-24T00:00:00.000Z').valueOf();
sats=[{"SITE":"AFETR","MEAN_MOTION":"15.06397004","ARG_OF_PERICENTER":"68.7771","GP_ID":"206682894","OBJECT_ID":"2020-006AT","ELEMENT_SET_NO":"999","EPHEMERIS_TYPE":"0","CENTER_NAME":"EARTH","LAUNCH_DATE":"2020-01-29","TLE_LINE2":"2 45085  53.0545 210.6384 0001616  68.7771 291.3391 15.06397004132751","OBJECT_NAME":"STARLINK-1179","TLE_LINE1":"1 45085U 20006AT  22174.42376987  .00001590  00000-0  12565-3 0  9999","DECAY_DATE":null,"EPOCH":"2022-06-23T10:10:13.716768","RCS_SIZE":"LARGE","MEAN_ELEMENT_THEORY":"SGP4","RA_OF_ASC_NODE":"210.6384","INCLINATION":"53.0545","PERIOD":"95.592","MEAN_MOTION_DOT":"0.00001590","PERIAPSIS":"546.104","MEAN_MOTION_DDOT":"0.0000000000000","APOAPSIS":"548.342","MEAN_ANOMALY":"291.3391","OBJECT_TYPE":"PAYLOAD","BSTAR":"0.00012565000000","REV_AT_EPOCH":"13275","FILE":"3500539","COUNTRY_CODE":"US","CLASSIFICATION_TYPE":"U","TIME_SYSTEM":"UTC","SEMIMAJOR_AXIS":"6925.358","REF_FRAME":"TEME","ECCENTRICITY":"0.00016160","NORAD_CAT_ID":"45085"},{"TIME_SYSTEM":"UTC","ECCENTRICITY":"0.00021050","NORAD_CAT_ID":"45086","REF_FRAME":"TEME","SEMIMAJOR_AXIS":"6897.146","FILE":"3500539","BSTAR":"0.00081331000000","REV_AT_EPOCH":"13277","CLASSIFICATION_TYPE":"U","COUNTRY_CODE":"US","PERIAPSIS":"517.559","MEAN_MOTION_DDOT":"0.0000000000000","APOAPSIS":"520.462","OBJECT_TYPE":"PAYLOAD","MEAN_ANOMALY":"334.0435","MEAN_MOTION_DOT":"0.00015377","MEAN_ELEMENT_THEORY":"SGP4","EPOCH":"2022-06-23T08:58:20.568288","RCS_SIZE":"LARGE","INCLINATION":"52.9991","PERIOD":"95.009","RA_OF_ASC_NODE":"200.3550","TLE_LINE2":"2 45086  52.9991 200.3550 0002105  26.0663 334.0435 15.15649142132776","DECAY_DATE":null,"OBJECT_NAME":"STARLINK-1181","TLE_LINE1":"1 45086U 20006AU  22174.37384917  .00015377  00000-0  81331-3 0  9991","GP_ID":"206683644","ARG_OF_PERICENTER":"26.0663","OBJECT_ID":"2020-006AU","MEAN_MOTION":"15.15649142","SITE":"AFETR","LAUNCH_DATE":"2020-01-29","ELEMENT_SET_NO":"999","CENTER_NAME":"EARTH","EPHEMERIS_TYPE":"0"},{"INCLINATION":"53.0535","PERIOD":"95.593","RA_OF_ASC_NODE":"210.4043","MEAN_ELEMENT_THEORY":"SGP4","RCS_SIZE":"LARGE","EPOCH":"2022-06-23T11:24:32.958144","MEAN_MOTION_DOT":"-0.00000008","LAUNCH_DATE":"2020-01-29","ELEMENT_SET_NO":"999","EPHEMERIS_TYPE":"0","CENTER_NAME":"EARTH","ARG_OF_PERICENTER":"71.9132","GP_ID":"206681893","OBJECT_ID":"2020-006AV","SITE":"AFETR","MEAN_MOTION":"15.06394245","DECAY_DATE":null,"OBJECT_NAME":"STARLINK-1185","TLE_LINE1":"1 45087U 20006AV  22174.47538146 -.00000008  00000-0  18358-4 0  9994","TLE_LINE2":"2 45087  53.0535 210.4043 0001318  71.9132 288.2001 15.06394245132766","NORAD_CAT_ID":"45087","ECCENTRICITY":"0.00013180","SEMIMAJOR_AXIS":"6925.366","REF_FRAME":"TEME","TIME_SYSTEM":"UTC","MEAN_ANOMALY":"288.2001","OBJECT_TYPE":"PAYLOAD","MEAN_MOTION_DDOT":"0.0000000000000","PERIAPSIS":"546.318","APOAPSIS":"548.144","CLASSIFICATION_TYPE":"U","COUNTRY_CODE":"US","FILE":"3500539","BSTAR":"0.00001835800000","REV_AT_EPOCH":"13276"},{"ELEMENT_SET_NO":"999","EPHEMERIS_TYPE":"0","CENTER_NAME":"EARTH","LAUNCH_DATE":"2020-01-29","MEAN_MOTION":"15.06396404","SITE":"AFETR","GP_ID":"206682143","ARG_OF_PERICENTER":"68.6353","OBJECT_ID":"2020-006AW","OBJECT_NAME":"STARLINK-1183","TLE_LINE1":"1 45088U 20006AW  22174.43114841  .00001371  00000-0  11092-3 0  9993","DECAY_DATE":null,"TLE_LINE2":"2 45088  53.0526 210.6072 0001575  68.6353 291.4804 15.06396404132759","RA_OF_ASC_NODE":"210.6072","INCLINATION":"53.0526","PERIOD":"95.592","EPOCH":"2022-06-23T10:20:51.222624","RCS_SIZE":"LARGE","MEAN_ELEMENT_THEORY":"SGP4","MEAN_MOTION_DOT":"0.00001371","MEAN_ANOMALY":"291.4804","OBJECT_TYPE":"PAYLOAD","MEAN_MOTION_DDOT":"0.0000000000000","PERIAPSIS":"546.134","APOAPSIS":"548.315","COUNTRY_CODE":"US","CLASSIFICATION_TYPE":"U","BSTAR":"0.00011092000000","REV_AT_EPOCH":"13275","FILE":"3500539","SEMIMAJOR_AXIS":"6925.360","REF_FRAME":"TEME","NORAD_CAT_ID":"45088","ECCENTRICITY":"0.00015750","TIME_SYSTEM":"UTC"},{"LAUNCH_DATE":"2020-01-29","ELEMENT_SET_NO":"999","EPHEMERIS_TYPE":"0","CENTER_NAME":"EARTH","GP_ID":"206683394","OBJECT_ID":"2020-006AX","ARG_OF_PERICENTER":"60.9897","SITE":"AFETR","MEAN_MOTION":"15.06396905","DECAY_DATE":null,"OBJECT_NAME":"STARLINK-1136","TLE_LINE1":"1 45089U 20006AX  22174.37218117 -.00000077  00000-0  13719-4 0  9990","TLE_LINE2":"2 45089  53.0537 210.9648 0001570  60.9897 299.1249 15.06396905132751","INCLINATION":"53.0537","PERIOD":"95.592","RA_OF_ASC_NODE":"210.9648","MEAN_ELEMENT_THEORY":"SGP4","EPOCH":"2022-06-23T08:55:56.453088","RCS_SIZE":"LARGE","MEAN_MOTION_DOT":"-0.00000077","MEAN_ANOMALY":"299.1249","OBJECT_TYPE":"PAYLOAD","MEAN_MOTION_DDOT":"0.0000000000000","PERIAPSIS":"546.136","APOAPSIS":"548.310","CLASSIFICATION_TYPE":"U","COUNTRY_CODE":"US","FILE":"3500539","BSTAR":"0.00001371900000","REV_AT_EPOCH":"13275","ECCENTRICITY":"0.00015700","NORAD_CAT_ID":"45089","SEMIMAJOR_AXIS":"6925.358","REF_FRAME":"TEME","TIME_SYSTEM":"UTC"},{"TLE_LINE2":"2 45090  53.0545 210.6743 0001341  77.4574 282.6565 15.06392369132754","OBJECT_NAME":"STARLINK-1176","TLE_LINE1":"1 45090U 20006AY  22174.41546315  .00000562  00000-0  56620-4 0  9997","DECAY_DATE":null,"SITE":"AFETR","MEAN_MOTION":"15.06392369","ARG_OF_PERICENTER":"77.4574","GP_ID":"206683145","OBJECT_ID":"2020-006AY","ELEMENT_SET_NO":"999","EPHEMERIS_TYPE":"0","CENTER_NAME":"EARTH","LAUNCH_DATE":"2020-01-29","MEAN_MOTION_DOT":"0.00000562","EPOCH":"2022-06-23T09:58:16.016160","RCS_SIZE":"LARGE","MEAN_ELEMENT_THEORY":"SGP4","RA_OF_ASC_NODE":"210.6743","INCLINATION":"53.0545","PERIOD":"95.593","BSTAR":"0.00005662000000","REV_AT_EPOCH":"13275","FILE":"3500539","COUNTRY_CODE":"US","CLASSIFICATION_TYPE":"U","PERIAPSIS":"546.308","MEAN_MOTION_DDOT":"0.0000000000000","APOAPSIS":"548.166","OBJECT_TYPE":"PAYLOAD","MEAN_ANOMALY":"282.6565","TIME_SYSTEM":"UTC","REF_FRAME":"TEME","SEMIMAJOR_AXIS":"6925.372","ECCENTRICITY":"0.00013410","NORAD_CAT_ID":"45090"},{"OBJECT_TYPE":"PAYLOAD","MEAN_ANOMALY":"299.0300","MEAN_MOTION_DDOT":"0.0000000000000","PERIAPSIS":"546.269","APOAPSIS":"548.175","CLASSIFICATION_TYPE":"U","COUNTRY_CODE":"US","FILE":"3500539","BSTAR":"0.00000372940000","REV_AT_EPOCH":"13275","ECCENTRICITY":"0.00013760","NORAD_CAT_ID":"45092","SEMIMAJOR_AXIS":"6925.357","REF_FRAME":"TEME","TIME_SYSTEM":"UTC","LAUNCH_DATE":"2020-01-29","ELEMENT_SET_NO":"999","EPHEMERIS_TYPE":"0","CENTER_NAME":"EARTH","GP_ID":"206682393","ARG_OF_PERICENTER":"61.0827","OBJECT_ID":"2020-006BA","MEAN_MOTION":"15.06397318","SITE":"AFETR","DECAY_DATE":null,"OBJECT_NAME":"STARLINK-1137","TLE_LINE1":"1 45092U 20006BA  22174.45694170 -.00000226  00000-0  37294-5 0  9991","TLE_LINE2":"2 45092  53.0548 210.5089 0001376  61.0827 299.0300 15.06397318132757","INCLINATION":"53.0548","PERIOD":"95.592","RA_OF_ASC_NODE":"210.5089","MEAN_ELEMENT_THEORY":"SGP4","RCS_SIZE":"LARGE","EPOCH":"2022-06-23T10:57:59.762880","MEAN_MOTION_DOT":"-0.00000226"},{"REV_AT_EPOCH":"13275","BSTAR":"0.00003791000000","FILE":"3500539","COUNTRY_CODE":"US","CLASSIFICATION_TYPE":"U","APOAPSIS":"548.199","MEAN_MOTION_DDOT":"0.0000000000000","PERIAPSIS":"546.283","MEAN_ANOMALY":"289.3906","OBJECT_TYPE":"PAYLOAD","TIME_SYSTEM":"UTC","SEMIMAJOR_AXIS":"6925.376","REF_FRAME":"TEME","NORAD_CAT_ID":"45093","ECCENTRICITY":"0.00013830","TLE_LINE2":"2 45093  53.0535 210.5190 0001383  70.7233 289.3906 15.06391021132752","TLE_LINE1":"1 45093U 20006BB  22174.45326709  .00000283  00000-0  37910-4 0  9998","OBJECT_NAME":"STARLINK-1142","DECAY_DATE":null,"MEAN_MOTION":"15.06391021","SITE":"AFETR","OBJECT_ID":"2020-006BB","GP_ID":"206682643","ARG_OF_PERICENTER":"70.7233","EPHEMERIS_TYPE":"0","CENTER_NAME":"EARTH","ELEMENT_SET_NO":"999","LAUNCH_DATE":"2020-01-29","MEAN_MOTION_DOT":"0.00000283","EPOCH":"2022-06-23T10:52:42.276576","RCS_SIZE":"LARGE","MEAN_ELEMENT_THEORY":"SGP4","RA_OF_ASC_NODE":"210.5190","PERIOD":"95.593","INCLINATION":"53.0535"},{"REF_FRAME":"TEME","SEMIMAJOR_AXIS":"6925.389","ECCENTRICITY":"0.00014040","NORAD_CAT_ID":"45094","TIME_SYSTEM":"UTC","COUNTRY_CODE":"US","CLASSIFICATION_TYPE":"U","REV_AT_EPOCH":"13275","BSTAR":"0.00003213200000","FILE":"3500539","MEAN_ANOMALY":"290.4041","OBJECT_TYPE":"PAYLOAD","APOAPSIS":"548.227","MEAN_MOTION_DDOT":"0.0000000000000","PERIAPSIS":"546.282","MEAN_MOTION_DOT":"0.00000197","RA_OF_ASC_NODE":"210.7383","PERIOD":"95.593","INCLINATION":"53.0536","RCS_SIZE":"LARGE","EPOCH":"2022-06-23T09:37:01.994592","MEAN_ELEMENT_THEORY":"SGP4","TLE_LINE1":"1 45094U 20006BC  22174.40071753  .00000197  00000-0  32132-4 0  9995","OBJECT_NAME":"STARLINK-1146","DECAY_DATE":null,"TLE_LINE2":"2 45094  53.0536 210.7383 0001404  69.7099 290.4041 15.06386691132752","EPHEMERIS_TYPE":"0","CENTER_NAME":"EARTH","ELEMENT_SET_NO":"999","LAUNCH_DATE":"2020-01-29","SITE":"AFETR","MEAN_MOTION":"15.06386691","OBJECT_ID":"2020-006BC","GP_ID":"206682895","ARG_OF_PERICENTER":"69.7099"},{"TLE_LINE2":"2 45095  53.0518 210.4171 0001678  51.1463 308.9675 15.06394743132764","DECAY_DATE":null,"OBJECT_NAME":"STARLINK-1147","TLE_LINE1":"1 45095U 20006BD  22174.47074714 -.00000075  00000-0  13869-4 0  9995","GP_ID":"206683645","OBJECT_ID":"2020-006BD","ARG_OF_PERICENTER":"51.1463","SITE":"AFETR","MEAN_MOTION":"15.06394743","LAUNCH_DATE":"2020-01-29","ELEMENT_SET_NO":"999","EPHEMERIS_TYPE":"0","CENTER_NAME":"EARTH","MEAN_MOTION_DOT":"-0.00000075","MEAN_ELEMENT_THEORY":"SGP4","RCS_SIZE":"LARGE","EPOCH":"2022-06-23T11:17:52.552896","INCLINATION":"53.0518","PERIOD":"95.592","RA_OF_ASC_NODE":"210.4171","FILE":"3500539","BSTAR":"0.00001386900000","REV_AT_EPOCH":"13276","CLASSIFICATION_TYPE":"U","COUNTRY_CODE":"US","PERIAPSIS":"546.068","MEAN_MOTION_DDOT":"0.0000000000000","APOAPSIS":"548.392","MEAN_ANOMALY":"308.9675","OBJECT_TYPE":"PAYLOAD","TIME_SYSTEM":"UTC","ECCENTRICITY":"0.00016780","NORAD_CAT_ID":"45095","REF_FRAME":"TEME","SEMIMAJOR_AXIS":"6925.365"}];
